NORAD_CAT_ID,OBJECT_NAME,OBJECT_TYPE,EPOCH,MEAN_MOTION,ECCENTRICITY,INCLINATION,RA_OF_ASC_NODE,ARG_OF_PERICENTER,MEAN_ANOMALY,BSTAR,MEAN_MOTION_DOT,MEAN_MOTION_DDOT,TLE_LINE0,TLE_LINE1,TLE_LINE2,SEMIMAJOR_AXIS,PERIOD,APOGEE,PERIGEE,DECAYED
53027.0,STARLINK-4158,PAYLOAD,2023-06-24 08:24:59,15.08825436,0.000104,53.2163,205.4356,87.9673,272.1438,5.5988e-05,6.03e-06,0.0,0 STARLINK-4158,1 53027U 22076AT  23175.35068720  .00000603  00000-0  55988-4 0  9991,2 53027  53.2163 205.4356 0001040  87.9673 272.1438 15.08825436 54108,6917.925,95.438,540.509,539.07,0.0
53027.0,STARLINK-4158,PAYLOAD,2023-06-25 11:26:32,15.08829138,0.0001061,53.2157,200.3807,82.0439,278.0673,8.1275e-05,1.006e-05,0.0,0 STARLINK-4158,1 53027U 22076AT  23176.47676804  .00001006  00000-0  81275-4 0  9999,2 53027  53.2157 200.3807 0001061  82.0439 278.0673 15.08829138 54272,6917.914,95.438,540.513,539.045,0.0
53027.0,STARLINK-4158,PAYLOAD,2023-06-26 08:06:33,15.08838301,0.0001105,53.2158,196.5148,80.0873,280.0244,9.2319e-05,1.182e-05,0.0,0 STARLINK-4158,1 53027U 22076AT  23177.33788412  .00001182  00000-0  92319-4 0  9990,2 53027  53.2158 196.5148 0001105  80.0873 280.0244 15.08838301 54400,6917.886,95.438,540.515,538.986,0.0
53027.0,STARLINK-4158,PAYLOAD,2023-06-27 17:29:38,15.0884151,0.0001137,53.2156,190.2702,78.7067,281.4052,7.7103e-05,9.4e-06,0.0,0 STARLINK-4158,1 53027U 22076AT  23178.72892310  .00000940  00000-0  77103-4 0  9992,2 53027  53.2156 190.2702 0001137  78.7067 281.4052 15.08841510 54610,6917.876,95.437,540.527,538.954,0.0
53027.0,STARLINK-4158,PAYLOAD,2023-06-29 04:28:07,15.08841826,0.0001192,53.216,183.7288,83.2886,276.8242,1.2347e-07,-2.86e-06,0.0,0 STARLINK-4158,1 53027U 22076AT  23180.18620290 -.00000286  00000-0  12347-6 0  9996,2 53027  53.2160 183.7288 0001192  83.2886 276.8242 15.08841826 54835,6917.875,95.437,540.564,538.915,0.0
53027.0,STARLINK-4158,PAYLOAD,2023-07-01 16:52:47,15.08839835,0.0001213,53.2161,172.4285,83.3044,276.8086,3.944e-05,3.4e-06,0.0,0 STARLINK-4158,1 53027U 22076AT  23182.70332263  .00000340  00000-0  39440-4 0  9997,2 53027  53.2161 172.4285 0001213  83.3044 276.8086 15.08839835 55215,6917.881,95.438,540.585,538.907,0.0
53027.0,STARLINK-4158,PAYLOAD,2023-07-03 02:15:53,15.08838348,0.0001233,53.2163,166.184,84.5701,275.5431,3.1528e-05,2.14e-06,0.0,0 STARLINK-4158,1 53027U 22076AT  23184.09436375  .00000214  00000-0  31528-4 0  9999,2 53027  53.2163 166.1840 0001233  84.5701 275.5431 15.08838348 55420,6917.885,95.438,540.603,538.897,0.0
53027.0,STARLINK-4158,PAYLOAD,2023-07-04 08:28:12,15.08837707,0.0001272,53.2165,160.5328,89.9692,270.1446,1.0316e-05,-1.24e-06,0.0,0 STARLINK-4158,1 53027U 22076AT  23185.35292520 -.00000124  00000-0  10316-4 0  9994,2 53027  53.2165 160.5328 0001272  89.9692 270.1446 15.08837707 55618,6917.887,95.438,540.632,538.872,0.0
53027.0,STARLINK-4158,PAYLOAD,2023-07-05 14:40:32,15.08836312,0.0001193,53.2157,154.8835,90.6302,269.4827,7.9999e-06,-1.61e-06,0.0,0 STARLINK-4158,1 53027U 22076AT  23186.61148859 -.00000161  00000-0  79999-5 0  9993,2 53027  53.2157 154.8835 0001193  90.6302 269.4827 15.08836312 55803,6917.892,95.438,540.582,538.931,0.0
53027.0,STARLINK-4158,PAYLOAD,2023-07-06 22:28:15,15.08838516,0.0001228,53.2168,148.9373,96.2788,263.8344,4.116e-05,3.67e-06,0.0,0 STARLINK-4158,1 53027U 22076AT  23187.93629090  .00000367  00000-0  41160-4 0  9995,2 53027  53.2168 148.9373 0001228  96.2788 263.8344 15.08838516 56008,6917.885,95.438,540.599,538.9,0.0
53027.0,STARLINK-4158,PAYLOAD,2023-07-07 06:25:10,15.08845919,0.0001238,53.2168,147.4505,94.4773,265.636,9.9609e-05,1.298e-05,0.0,0 STARLINK-4158,1 53027U 22076AT  23188.26748453  .00001298  00000-0  99609-4 0  9992,2 53027  53.2168 147.4505 0001238  94.4773 265.6360 15.08845919 56052,6917.862,95.437,540.584,538.871,0.0
53027.0,STARLINK-4158,PAYLOAD,2023-07-07 22:19:02,15.08842858,0.0001242,53.2176,144.4774,96.9807,263.1326,8.9249e-05,1.133e-05,0.0,0 STARLINK-4158,1 53027U 22076AT  23188.92988639  .00001133  00000-0  89249-4 0  9994,2 53027  53.2176 144.4774 0001242  96.9807 263.1326 15.08842858 56151,6917.872,95.437,540.596,538.877,0.0
53027.0,STARLINK-4158,PAYLOAD,2023-07-08 04:40:35,15.08835004,0.0001215,53.2168,143.2874,92.9494,267.1638,1.0479e-05,-1.21e-06,0.0,0 STARLINK-4158,1 53027U 22076AT  23189.19485416 -.00000121  00000-0  10479-4 0  9995,2 53027  53.2168 143.2874 0001215  92.9494 267.1638 15.08835004 56197,6917.896,95.438,540.601,538.92,0.0
53027.0,STARLINK-4158,PAYLOAD,2023-07-08 20:34:27,15.08820895,0.0001303,53.2165,140.3133,98.2742,261.8398,0.00013873,1.92e-05,0.0,0 STARLINK-4158,1 53027U 22076AT  23189.85726120  .00001920  00000-0  13873-3 0  9995,2 53027  53.2165 140.3133 0001303  98.2742 261.8398 15.08820895 56290,6917.939,95.439,540.705,538.902,0.0
53027.0,STARLINK-4158,PAYLOAD,2023-07-09 02:55:59,15.08834986,0.0001225,53.2165,139.1236,95.728,264.3852,3.807e-06,-2.27e-06,0.0,0 STARLINK-4158,1 53027U 22076AT  23190.12221716 -.00000227  00000-0  38070-5 0  9996,2 53027  53.2165 139.1236 0001225  95.7280 264.3852 15.08834986 56336,6917.896,95.438,540.608,538.913,0.0
53027.0,STARLINK-4158,PAYLOAD,2023-07-10 02:46:46,15.08837009,0.0001225,53.2167,134.662,97.5962,262.5169,0.00010344,1.359e-05,0.0,0 STARLINK-4158,1 53027U 22076AT  23191.11581300  .00001359  00000-0  10344-3 0  9992,2 53027  53.2167 134.6620 0001225  97.5962 262.5169 15.08837009 56488,6917.89,95.438,540.602,538.907,0.0
53027.0,STARLINK-4158,PAYLOAD,2023-07-11 02:37:34,15.08830397,0.0001231,53.2169,130.2014,97.4607,262.6525,-4.8751e-06,-3.65e-06,0.0,0 STARLINK-4158,1 53027U 22076AT  23192.10942533 -.00000365  00000-0 -48751-5 0  9994,2 53027  53.2169 130.2014 0001231  97.4607 262.6525 15.08830397 56638,6917.91,95.438,540.626,538.923,0.0
53027.0,STARLINK-4158,PAYLOAD,2023-07-11 05:48:20,15.08838353,0.0001196,53.2172,129.606,106.0221,254.0903,-3.4015e-05,-8.29e-06,0.0,0 STARLINK-4158,1 53027U 22076AT  23192.24190142 -.00000829  00000-0 -34015-4 0  9992,2 53027  53.2172 129.6060 0001196 106.0221 254.0903 15.08838353 56651,6917.885,95.438,540.578,538.923,0.0
53027.0,STARLINK-4158,PAYLOAD,2023-07-12 12:00:38,15.08851729,0.0001066,53.2167,123.9596,89.5361,270.5753,4.8577e-05,4.86e-06,0.0,0 STARLINK-4158,1 53027U 22076AT  23193.50044715  .00000486  00000-0  48577-4 0  9991,2 53027  53.2167 123.9596 0001066  89.5361 270.5753 15.08851729 56841,6917.845,95.437,540.447,538.972,0.0
53027.0,STARLINK-4158,PAYLOAD,2023-07-13 18:12:59,15.08836501,0.0001498,53.2178,118.3099,92.6316,267.4848,-3.785e-05,-8.9e-06,0.0,0 STARLINK-4158,1 53027U 22076AT  23194.75902399 -.00000890  00000-0 -37850-4 0  9993,2 53027  53.2178 118.3099 0001498  92.6316 267.4848 15.08836501 57036,6917.891,95.438,540.792,538.72,0.0
53027.0,STARLINK-4158,PAYLOAD,2023-07-14 05:20:40,15.08848393,0.0001148,53.2172,116.2264,98.9007,261.2115,-3.4002e-05,-8.29e-06,0.0,0 STARLINK-4158,1 53027U 22076AT  23195.22269580 -.00000829  00000-0 -34002-4 0  9992,2 53027  53.2172 116.2264 0001148  98.9007 261.2115 15.08848393 57108,6917.855,95.437,540.514,538.926,0.0
53027.0,STARLINK-4158,PAYLOAD,2023-07-15 00:25:18,15.08839623,0.0001473,53.2181,112.6572,107.085,253.0303,7.4646e-05,9e-06,0.0,0 STARLINK-4158,1 53027U 22076AT  23196.01757858  .00000900  00000-0  74646-4 0  9996,2 53027  53.2181 112.6572 0001473 107.0850 253.0303 15.08839623 57226,6917.882,95.438,540.766,538.728,0.0
53027.0,STARLINK-4158,PAYLOAD,2023-07-16 01:51:30,15.08827486,0.0001253,53.2174,107.8997,89.7468,270.3668,-5.305e-05,-1.132e-05,0.0,0 STARLINK-4158,1 53027U 22076AT  23197.07743948 -.00001132  00000-0 -53050-4 0  9994,2 53027  53.2174 107.8997 0001253  89.7468 270.3668 15.08827486 57389,6917.919,95.438,540.65,538.917,0.0
53027.0,STARLINK-4158,PAYLOAD,2023-07-16 19:20:44,15.08844665,0.0001263,53.217,104.6315,83.4959,276.6177,8.3272e-05,1.038e-05,0.0,0 STARLINK-4158,1 53027U 22076AT  23197.80606806  .00001038  00000-0  83272-4 0  9998,2 53027  53.2170 104.6315 0001263  83.4959 276.6177 15.08844665 57495,6917.866,95.437,540.605,538.857,0.0
53027.0,STARLINK-4158,PAYLOAD,2023-07-17 23:57:39,15.08854997,0.000127,53.217,99.2772,88.5498,271.564,0.00028581,4.266e-05,0.0,0 STARLINK-4158,1 53027U 22076AT  23198.99837630  .00004266  00000-0  28581-3 0  9997,2 53027  53.2170  99.2772 0001270  88.5498 271.5640 15.08854997 57671,6917.835,95.437,540.578,538.821,0.0
53027.0,STARLINK-4158,PAYLOAD,2023-07-18 20:37:40,15.08847766,0.0001322,53.2167,95.4122,178.6524,181.4472,-2.661e-05,-7.11e-06,0.0,0 STARLINK-4158,1 53027U 22076AT  23199.85949620 -.00000711  00000-0 -26610-4 0  9991,2 53027  53.2167  95.4122 0001322 178.6524 181.4472 15.08847766 57806,6917.857,95.437,540.636,538.807,0.0
53027.0,STARLINK-4158,PAYLOAD,2023-07-20 02:50:00,15.08849232,0.000115,53.2165,89.7606,96.8565,263.2558,1.427e-05,-6.1e-07,0.0,0 STARLINK-4158,1 53027U 22076AT  23201.11805920 -.00000061  00000-0  14270-4 0  9994,2 53027  53.2165  89.7606 0001150  96.8565 263.2558 15.08849232 57996,6917.852,95.437,540.513,538.922,0.0
53027.0,STARLINK-4158,PAYLOAD,2023-07-21 01:05:24,15.08843299,0.0001258,53.218,85.5942,92.2743,267.8393,0.00024004,3.535e-05,0.0,0 STARLINK-4158,1 53027U 22076AT  23202.04542582  .00003535  00000-0  24004-3 0  9992,2 53027  53.2180  85.5942 0001258  92.2743 267.8393 15.08843299 58138,6917.87,95.437,540.606,538.865,0.0
53027.0,STARLINK-4158,PAYLOAD,2023-07-24 00:37:46,15.08832884,0.000194,53.2174,72.2088,135.8526,224.2621,-0.000119,-2.181e-05,0.0,0 STARLINK-4158,1 53027U 22076AT  23205.02623127 -.00002181  00000-0 -11900-3 0  9997,2 53027  53.2174  72.2088 0001940 135.8526 224.2621 15.08832884 58113,6917.902,95.438,541.109,538.425,0.0
53027.0,STARLINK-4158,PAYLOAD,2023-07-25 00:28:35,15.08828194,0.0001375,53.2172,67.7583,88.0222,272.0928,-1.2517e-05,-4.87e-06,0.0,0 STARLINK-4158,1 53027U 22076AT  23206.01985056 -.00000487  00000-0 -12517-4 0  9992,2 53027  53.2172  67.7583 0001375  88.0222 272.0928 15.08828194 58260,6917.916,95.438,540.733,538.83,0.0
